OBJECT_NAME,OBJECT_ID,EPOCH,MEAN_MOTION,ECCENTRICITY,INCLINATION,RA_OF_ASC_NODE,ARG_OF_PERICENTER,MEAN_ANOMALY,EPHEMERIS_TYPE,CLASSIFICATION_TYPE,NORAD_CAT_ID,ELEMENT_SET_NO,REV_AT_EPOCH,BSTAR,MEAN_MOTION_DOT,MEAN_MOTION_DDOT
SL-16 R/B,1996-051B,2026-06-07T23:11:40.359840,14.12442919,.00146736,70.7634,344.1641,350.9359,9.1493,0,U,24298,999,53439,.99425374E-4,.134E-5,0
ORBVIEW 2 (SEASTAR),1997-037A,2026-06-08T10:43:37.173792,14.35549090,.0002918,98.8682,326.2243,134.2669,225.8756,0,U,24883,999,52149,.10616E-3,.259E-5,0
SL-16 R/B,1998-043G,2026-06-08T10:51:17.792064,14.26067243,.0010878,98.8360,113.5366,109.1477,251.0881,0,U,25400,999,45192,.44899E-4,.62E-6,0
SL-16 R/B,1998-045B,2026-06-07T21:53:53.721312,14.16204707,.00095313,71.0121,351.8354,252.8605,107.1475,0,U,25407,999,43987,.50740347E-4,.53E-6,0
ISS (ZARYA),1998-067A,2026-06-08T06:55:01.494336,15.49664883,.0006937,51.6333,344.1431,146.3340,213.8090,0,U,25544,999,57037,.12624E-3,.6674E-4,0
CZ-4B R/B,1999-025C,2026-06-08T09:09:46.656000,14.18281984,.0038237,98.6487,201.4416,84.2400,294.1129,0,U,25732,999,40102,.45342E-4,.51E-6,0
OKEAN-O,1999-039A,2026-06-08T10:13:25.083264,14.80457154,.0001822,97.9318,218.3240,78.3788,281.7628,0,U,25860,999,44781,.92104E-4,.652E-5,0
SL-16 R/B,1999-039B,2026-06-08T04:27:35.008704,14.81836506,.0014,97.9842,218.0742,328.4244,31.6127,0,U,25861,999,45026,.69673E-4,.497E-5,0
DELTA 2 R/B,1999-041E,2026-06-08T02:46:25.817376,14.12000165,.05009452,51.7662,300.0336,255.1992,99.2946,0,U,25876,999,37580,.17901315E-3,.878E-5,0
HELIOS 1B,1999-064A,2026-06-08T07:15:12.949344,14.87983530,.0002353,98.1622,64.1847,104.3150,255.8327,0,U,25977,999,69873,.1714E-3,.1514E-4,0
TERRA,1999-068A,2026-06-08T11:15:48.345984,14.61096449,.0000952,97.9459,209.3609,230.9637,253.7925,0,U,25994,999,40833,.931E-4,.413E-5,0
SL-16 R/B,2000-006B,2026-06-08T12:23:41.318880,14.15836556,.0015085,71.0032,266.8564,36.6526,323.5626,0,U,26070,999,36141,-.91418E-4,-.228E-5,0
TITAN 4B R/B,2000-047B,2026-06-08T10:48:17.482176,15.10147075,.0045568,67.9873,145.1650,295.9403,63.7054,0,U,26474,999,40661,.20431E-3,.3284E-4,0
ENVISAT,2002-009A,2026-06-08T11:57:13.392288,14.39062839,.0001332,98.3831,111.0105,90.5325,20.7289,0,U,27386,999,27223,.44443E-4,.94E-6,0
IDEFIX & ARIANE 42P R/B,2002-021B,2026-06-08T11:02:09.599712,14.31078150,.001062,98.5942,97.0376,282.5342,77.4652,0,U,27422,999,25700,.10132E-3,.223E-5,0
AQUA,2002-022A,2026-06-08T12:13:43.766112,14.62145240,.0001448,98.4272,128.6193,54.7043,56.2419,0,U,27424,999,28200,.17615E-3,.836E-5,0
CZ-4B R/B,2002-024C,2026-06-08T04:31:00.050592,14.14563013,.00510466,98.8703,212.0664,125.2893,304.1771,0,U,27432,999,24203,.44191402E-4,.42E-6,0
MIDORI II (ADEOS-II),2002-056A,2026-06-08T10:59:18.677184,14.29344981,.0002227,98.7874,118.6437,89.0984,271.0453,0,U,27597,999,22326,.126E-3,.276E-5,0
H-2A R/B,2002-056E,2026-06-08T12:11:11.613120,14.33818522,.0068898,98.3308,116.4989,250.8171,219.8392,0,U,27601,999,22712,.91832E-4,.22E-5,0
CZ-4B R/B,2003-049C,2026-06-08T11:57:27.650016,14.55094593,.0047285,98.6896,157.9988,315.7010,44.0405,0,U,28059,999,19980,.92065E-4,.351E-5,0
CZ-2C R/B,2004-012C,2026-06-08T03:44:55.857120,15.77275540,.00087485,97.7082,233.7812,323.6167,36.4503,0,U,28222,999,21847,.48575762E-3,.80162E-3,0
SL-16 R/B,2004-021B,2026-06-08T09:25:55.415136,14.14612164,.0007481,71.0021,42.1458,265.2419,94.7849,0,U,28353,999,13566,-.93259E-4,-.227E-5,0
CZ-4B R/B,2004-035C,2026-06-08T08:55:44.692320,15.30495706,.0031008,97.3375,192.5456,9.7946,350.3893,0,U,28415,999,19377,.24934E-3,.7382E-4,0
CZ-2C R/B,2004-046B,2026-06-08T11:55:42.383712,14.27024795,.013815,98.1951,68.8204,246.1474,112.5178,0,U,28480,999,12145,.45413E-4,.8E-6,0
ARIANE 5 R/B,2004-049H,2026-06-08T10:34:42.343104,14.85436979,.0084992,98.2717,331.3565,57.4921,303.4470,0,U,28499,999,15926,.92781E-4,.789E-5,0
CZ-2D R/B,2005-024B,2026-06-08T00:51:30.590208,15.68567062,.00047941,97.3499,178.0132,73.1197,287.0590,0,U,28738,999,15390,.51562739E-3,.58556E-3,0
ALOS (DAICHI),2006-002A,2026-06-08T10:42:25.435872,14.70032958,.0001777,98.1320,115.0411,61.3128,298.8256,0,U,28931,999,8681,.19205E-3,.1103E-4,0
H-2A R/B,2006-002B,2026-06-08T10:03:58.061664,15.17953556,.0049656,98.2559,314.4572,292.9318,66.6677,0,U,28932,999,10819,.26705E-3,.5514E-4,0
RESURS-DK 1,2006-021A,2026-06-07T23:29:54.284064,15.13177297,.00064373,69.9339,3.3886,299.3252,60.7270,0,U,29228,999,10118,.16339632E-3,.2799E-4,0
CZ-4B R/B,2006-046C,2026-06-08T00:32:52.981152,15.17717799,.00314166,97.5454,203.6582,316.1729,43.7012,0,U,29507,999,7374,.22884961E-3,.4603E-4,0
CZ-2C R/B,2007-010B,2026-06-08T12:51:20.866752,14.20274335,.005952,98.4091,268.3101,31.1415,329.3268,0,U,31114,999,99261,.65919E-4,.102E-5,0
