SL-16 R/B               
1 24298U 96051B   26158.96643935  .00000134  00000+0  99425-4 0  9993
2 24298  70.7634 344.1641 0014673 350.9359   9.1493 14.12442919534399
ORBVIEW 2 (SEASTAR)     
1 24883U 97037A   26159.44695803  .00000259  00000+0  10616-3 0  9995
2 24883  98.8682 326.2243 0002918 134.2669 225.8756 14.35549090521497
SL-16 R/B               
1 25400U 98043G   26159.45228926  .00000062  00000+0  44899-4 0  9991
2 25400  98.8360 113.5366 0010878 109.1477 251.0881 14.26067243451926
SL-16 R/B               
1 25407U 98045B   26158.91242733  .00000053  00000+0  50740-4 0  9994
2 25407  71.0121 351.8354 0009531 252.8605 107.1475 14.16204707439875
ISS (ZARYA)             
1 25544U 98067A   26159.28821174  .00006674  00000+0  12624-3 0  9996
2 25544  51.6333 344.1431 0006937 146.3340 213.8090 15.49664883570378
CZ-4B R/B               
1 25732U 99025C   26159.38179000  .00000051  00000+0  45342-4 0  9992
2 25732  98.6487 201.4416 0038237  84.2400 294.1129 14.18281984401023
OKEAN-O                 
1 25860U 99039A   26159.42598476  .00000652  00000+0  92104-4 0  9991
2 25860  97.9318 218.3240 0001822  78.3788 281.7628 14.80457154447811
SL-16 R/B               
1 25861U 99039B   26159.18582186  .00000497  00000+0  69673-4 0  9998
2 25861  97.9842 218.0742 0014000 328.4244  31.6127 14.81836506450268
DELTA 2 R/B             
1 25876U 99041E   26159.11557659  .00000878  00000+0  17901-3 0  9996
2 25876  51.7662 300.0336 0500945 255.1992  99.2946 14.12000165375800
HELIOS 1B               
1 25977U 99064A   26159.30223321  .00001514  00000+0  17140-3 0  9993
2 25977  98.1622  64.1847 0002353 104.3150 255.8327 14.87983530698730
TERRA                   
1 25994U 99068A   26159.46930956  .00000413  00000+0  93100-4 0  9990
2 25994  97.9459 209.3609 0000952 230.9637 253.7925 14.61096449408334
SL-16 R/B               
1 26070U 00006B   26159.51645045 -.00000228  00000+0 -91418-4 0  9994
2 26070  71.0032 266.8564 0015085  36.6526 323.5626 14.15836556361410
TITAN 4B R/B            
1 26474U 00047B   26159.45020234  .00003284  00000+0  20431-3 0  9996
2 26474  67.9873 145.1650 0045568 295.9403  63.7054 15.10147075406610
ENVISAT                 
1 27386U 02009A   26159.49807167  .00000094  00000+0  44443-4 0  9997
2 27386  98.3831 111.0105 0001332  90.5325  20.7289 14.39062839272231
IDEFIX & ARIANE 42P R/B 
1 27422U 02021B   26159.45983333  .00000223  00000+0  10132-3 0  9999
2 27422  98.5942  97.0376 0010620 282.5342  77.4652 14.31078150257008
AQUA                    
1 27424U 02022A   26159.50953433  .00000836  00000+0  17615-3 0  9999
2 27424  98.4272 128.6193 0001448  54.7043  56.2419 14.62145240282001
CZ-4B R/B               
1 27432U 02024C   26159.18819503  .00000042  00000+0  44191-4 0  9992
2 27432  98.8703 212.0664 0051046 125.2893 304.1771 14.14563013242034
MIDORI II (ADEOS-II)    
1 27597U 02056A   26159.45785506  .00000276  00000+0  12600-3 0  9992
2 27597  98.7874 118.6437 0002227  89.0984 271.0453 14.29344981223268
H-2A R/B                
1 27601U 02056E   26159.50777330  .00000220  00000+0  91832-4 0  9994
2 27601  98.3308 116.4989 0068898 250.8171 219.8392 14.33818522227125
CZ-4B R/B               
1 28059U 03049C   26159.49823669  .00000351  00000+0  92065-4 0  9994
2 28059  98.6896 157.9988 0047285 315.7010  44.0405 14.55094593199801
CZ-2C R/B               
1 28222U 04012C   26159.15620205  .00080162  00000+0  48576-3 0  9996
2 28222  97.7082 233.7812 0008748 323.6167  36.4503 15.77275540218478
SL-16 R/B               
1 28353U 04021B   26159.39300249 -.00000227  00000+0 -93259-4 0  9995
2 28353  71.0021  42.1458 0007481 265.2419  94.7849 14.14612164135669
CZ-4B R/B               
1 28415U 04035C   26159.37204505  .00007382  00000+0  24934-3 0  9995
2 28415  97.3375 192.5456 0031008   9.7946 350.3893 15.30495706193773
CZ-2C R/B               
1 28480U 04046B   26159.49701833  .00000080  00000+0  45413-4 0  9992
2 28480  98.1951  68.8204 0138150 246.1474 112.5178 14.27024795121450
ARIANE 5 R/B            
1 28499U 04049H   26159.44076786  .00000789  00000+0  92781-4 0  9998
2 28499  98.2717 331.3565 0084992  57.4921 303.4470 14.85436979159264
CZ-2D R/B               
1 28738U 05024B   26159.03577072  .00058556  00000+0  51563-3 0  9994
2 28738  97.3499 178.0132 0004794  73.1197 287.0590 15.68567062153900
ALOS (DAICHI)           
1 28931U 06002A   26159.44612773  .00001103  00000+0  19205-3 0  9992
2 28931  98.1320 115.0411 0001777  61.3128 298.8256 14.70032958 86816
H-2A R/B                
1 28932U 06002B   26159.41942201  .00005514  00000+0  26705-3 0  9995
2 28932  98.2559 314.4572 0049656 292.9318  66.6677 15.17953556108198
RESURS-DK 1             
1 29228U 06021A   26158.97910051  .00002799  00000+0  16340-3 0  9999
2 29228  69.9339   3.3886 0006437 299.3252  60.7270 15.13177297101180
CZ-4B R/B               
1 29507U 06046C   26159.02283543  .00004603  00000+0  22885-3 0  9999
2 29507  97.5454 203.6582 0031416 316.1729  43.7012 15.17717799 73741
CZ-2C R/B               
1 31114U 07010B   26159.53565818  .00000102  00000+0  65919-4 0  9998
2 31114  98.4091 268.3101 0059520  31.1415 329.3268 14.20274335992611
